[{"OBJECT_NAME":"FENGYUN 1C DEB","OBJECT_ID":"1999-025EUM","EPOCH":"2026-03-11T11:02:15.178560","MEAN_MOTION":13.61731985,"ECCENTRICITY":0.02467046,"INCLINATION":99.4773,"RA_OF_ASC_NODE":325.8531,"ARG_OF_PERICENTER":354.9674,"MEAN_ANOMALY":4.8994,"EPHEMERIS_TYPE":0,"CLASSIFICATION_TYPE":"U","NORAD_CAT_ID":38797,"ELEMENT_SET_NO":999,"REV_AT_EPOCH":60490,"BSTAR":0.00082537455,"MEAN_MOTION_DOT":7.32e-6,"MEAN_MOTION_DDOT":0},{"OBJECT_NAME":"FENGYUN 1C DEB","OBJECT_ID":"1999-025EUP","EPOCH":"2026-03-10T04:12:01.352160","MEAN_MOTION":14.49799862,"ECCENTRICITY":0.01627362,"INCLINATION":98.3929,"RA_OF_ASC_NODE":149.3111,"ARG_OF_PERICENTER":83.818,"MEAN_ANOMALY":278.1525,"EPHEMERIS_TYPE":0,"CLASSIFICATION_TYPE":"U","NORAD_CAT_ID":38799,"ELEMENT_SET_NO":999,"REV_AT_EPOCH":65305,"BSTAR":0.0012258584,"MEAN_MOTION_DOT":5.555e-5,"MEAN_MOTION_DDOT":0},{"OBJECT_NAME":"FENGYUN 1C DEB","OBJECT_ID":"1999-025EUR","EPOCH":"2026-03-07T09:41:40.257024","MEAN_MOTION":14.25341338,"ECCENTRICITY":0.0346532,"INCLINATION":98.3608,"RA_OF_ASC_NODE":118.3108,"ARG_OF_PERICENTER":102.8707,"MEAN_ANOMALY":325.6511,"EPHEMERIS_TYPE":0,"CLASSIFICATION_TYPE":"U","NORAD_CAT_ID":38801,"ELEMENT_SET_NO":999,"REV_AT_EPOCH":65566,"BSTAR":0.00083362138,"MEAN_MOTION_DOT":3.651e-5,"MEAN_MOTION_DDOT":0},{"OBJECT_NAME":"FENGYUN 1C DEB","OBJECT_ID":"1999-025EUT","EPOCH":"2026-03-10T11:45:25.150752","MEAN_MOTION":14.24612281,"ECCENTRICITY":0.0064367,"INCLINATION":99.1377,"RA_OF_ASC_NODE":81.7775,"ARG_OF_PERICENTER":144.416,"MEAN_ANOMALY":216.1335,"EPHEMERIS_TYPE":0,"CLASSIFICATION_TYPE":"U","NORAD_CAT_ID":38803,"ELEMENT_SET_NO":999,"REV_AT_EPOCH":61461,"BSTAR":0.0018857417,"MEAN_MOTION_DOT":4.431e-5,"MEAN_MOTION_DDOT":0},{"OBJECT_NAME":"FENGYUN 1C DEB","OBJECT_ID":"1999-025EUZ","EPOCH":"2026-03-12T06:35:01.107168","MEAN_MOTION":14.18413087,"ECCENTRICITY":0.0223822,"INCLINATION":98.5884,"RA_OF_ASC_NODE":83.6571,"ARG_OF_PERICENTER":69.6616,"MEAN_ANOMALY":292.8455,"EPHEMERIS_TYPE":0,"CLASSIFICATION_TYPE":"U","NORAD_CAT_ID":38809,"ELEMENT_SET_NO":999,"REV_AT_EPOCH":70475,"BSTAR":0.00056395,"MEAN_MOTION_DOT":1.448e-5,"MEAN_MOTION_DDOT":0},{"OBJECT_NAME":"FENGYUN 1C DEB","OBJECT_ID":"1999-025EVD","EPOCH":"2026-03-15T07:08:14.273952","MEAN_MOTION":14.20403575,"ECCENTRICITY":0.00052602,"INCLINATION":99.3488,"RA_OF_ASC_NODE":81.6596,"ARG_OF_PERICENTER":207.5073,"MEAN_ANOMALY":152.5824,"EPHEMERIS_TYPE":0,"CLASSIFICATION_TYPE":"U","NORAD_CAT_ID":38813,"ELEMENT_SET_NO":999,"REV_AT_EPOCH":49564,"BSTAR":0.00048820013,"MEAN_MOTION_DOT":9.97e-6,"MEAN_MOTION_DDOT":0},{"OBJECT_NAME":"FENGYUN 1C DEB","OBJECT_ID":"1999-025EVJ","EPOCH":"2026-03-10T09:39:14.181408","MEAN_MOTION":14.39761519,"ECCENTRICITY":0.00871668,"INCLINATION":98.2847,"RA_OF_ASC_NODE":127.8978,"ARG_OF_PERICENTER":194.6778,"MEAN_ANOMALY":231.976,"EPHEMERIS_TYPE":0,"CLASSIFICATION_TYPE":"U","NORAD_CAT_ID":38818,"ELEMENT_SET_NO":999,"REV_AT_EPOCH":68509,"BSTAR":0.00049098442,"MEAN_MOTION_DOT":1.565e-5,"MEAN_MOTION_DDOT":0},{"OBJECT_NAME":"FENGYUN 1C DEB","OBJECT_ID":"1999-025EVK","EPOCH":"2026-03-15T05:41:27.975840","MEAN_MOTION":14.19591486,"ECCENTRICITY":0.00786507,"INCLINATION":98.6262,"RA_OF_ASC_NODE":69.6045,"ARG_OF_PERICENTER":288.5193,"MEAN_ANOMALY":84.7645,"EPHEMERIS_TYPE":0,"CLASSIFICATION_TYPE":"U","NORAD_CAT_ID":38819,"ELEMENT_SET_NO":999,"REV_AT_EPOCH":64790,"BSTAR":0.00047297428,"MEAN_MOTION_DOT":9.86e-6,"MEAN_MOTION_DDOT":0},{"OBJECT_NAME":"FENGYUN 1C DEB","OBJECT_ID":"1999-025EVQ","EPOCH":"2026-03-14T19:47:34.077408","MEAN_MOTION":14.15330883,"ECCENTRICITY":0.00923405,"INCLINATION":99.2935,"RA_OF_ASC_NODE":216.1893,"ARG_OF_PERICENTER":302.2586,"MEAN_ANOMALY":56.9663,"EPHEMERIS_TYPE":0,"CLASSIFICATION_TYPE":"U","NORAD_CAT_ID":38824,"ELEMENT_SET_NO":999,"REV_AT_EPOCH":70439,"BSTAR":0.0029235812,"MEAN_MOTION_DOT":5.889e-5,"MEAN_MOTION_DDOT":0},{"OBJECT_NAME":"FENGYUN 1C DEB","OBJECT_ID":"1999-025EVT","EPOCH":"2026-02-27T18:36:54.867456","MEAN_MOTION":14.33348676,"ECCENTRICITY":0.0217334,"INCLINATION":98.3859,"RA_OF_ASC_NODE":84.317,"ARG_OF_PERICENTER":83.7685,"MEAN_ANOMALY":278.8208,"EPHEMERIS_TYPE":0,"CLASSIFICATION_TYPE":"U","NORAD_CAT_ID":38827,"ELEMENT_SET_NO":999,"REV_AT_EPOCH":62163,"BSTAR":0.00087725,"MEAN_MOTION_DOT":3.102e-5,"MEAN_MOTION_DDOT":0},{"OBJECT_NAME":"FENGYUN 1C DEB","OBJECT_ID":"1999-025EVV","EPOCH":"2026-03-14T12:05:49.684128","MEAN_MOTION":14.09432901,"ECCENTRICITY":0.00420016,"INCLINATION":98.7449,"RA_OF_ASC_NODE":91.8306,"ARG_OF_PERICENTER":129.379,"MEAN_ANOMALY":231.1112,"EPHEMERIS_TYPE":0,"CLASSIFICATION_TYPE":"U","NORAD_CAT_ID":38829,"ELEMENT_SET_NO":999,"REV_AT_EPOCH":65425,"BSTAR":0.00056531277,"MEAN_MOTION_DOT":9.53e-6,"MEAN_MOTION_DDOT":0},{"OBJECT_NAME":"FENGYUN 1C DEB","OBJECT_ID":"1999-025EVY","EPOCH":"2026-03-14T13:50:40.868160","MEAN_MOTION":14.04887526,"ECCENTRICITY":0.00871095,"INCLINATION":99.2579,"RA_OF_ASC_NODE":124.8161,"ARG_OF_PERICENTER":148.3264,"MEAN_ANOMALY":212.3185,"EPHEMERIS_TYPE":0,"CLASSIFICATION_TYPE":"U","NORAD_CAT_ID":38832,"ELEMENT_SET_NO":999,"REV_AT_EPOCH":65047,"BSTAR":0.0014221572,"MEAN_MOTION_DOT":2.318e-5,"MEAN_MOTION_DDOT":0},{"OBJECT_NAME":"FENGYUN 1C DEB","OBJECT_ID":"1999-025EWE","EPOCH":"2026-03-13T08:24:16.576704","MEAN_MOTION":13.84718385,"ECCENTRICITY":0.01763621,"INCLINATION":99.1557,"RA_OF_ASC_NODE":220.8835,"ARG_OF_PERICENTER":99.7242,"MEAN_ANOMALY":262.3882,"EPHEMERIS_TYPE":0,"CLASSIFICATION_TYPE":"U","NORAD_CAT_ID":39537,"ELEMENT_SET_NO":999,"REV_AT_EPOCH":60510,"BSTAR":0.0022255247,"MEAN_MOTION_DOT":2.785e-5,"MEAN_MOTION_DDOT":0},{"OBJECT_NAME":"FENGYUN 1C DEB","OBJECT_ID":"1999-025EWH","EPOCH":"2026-03-06T14:34:55.253280","MEAN_MOTION":13.37245619,"ECCENTRICITY":0.03985124,"INCLINATION":106.1831,"RA_OF_ASC_NODE":347.6154,"ARG_OF_PERICENTER":157.9132,"MEAN_ANOMALY":327.7913,"EPHEMERIS_TYPE":0,"CLASSIFICATION_TYPE":"U","NORAD_CAT_ID":39540,"ELEMENT_SET_NO":999,"REV_AT_EPOCH":70219,"BSTAR":0.0024056459,"MEAN_MOTION_DOT":1.895e-5,"MEAN_MOTION_DDOT":0},{"OBJECT_NAME":"FENGYUN 1C DEB","OBJECT_ID":"1999-025EWJ","EPOCH":"2026-03-11T09:15:09.781632","MEAN_MOTION":14.20652805,"ECCENTRICITY":0.00719007,"INCLINATION":98.6672,"RA_OF_ASC_NODE":115.8247,"ARG_OF_PERICENTER":175.6383,"MEAN_ANOMALY":184.5436,"EPHEMERIS_TYPE":0,"CLASSIFICATION_TYPE":"U","NORAD_CAT_ID":39541,"ELEMENT_SET_NO":999,"REV_AT_EPOCH":60261,"BSTAR":0.00060229417,"MEAN_MOTION_DOT":1.288e-5,"MEAN_MOTION_DDOT":0},{"OBJECT_NAME":"FENGYUN 1C DEB","OBJECT_ID":"1999-025EWL","EPOCH":"2026-03-14T19:32:52.101888","MEAN_MOTION":13.70428335,"ECCENTRICITY":0.03368345,"INCLINATION":99.0314,"RA_OF_ASC_NODE":103.296,"ARG_OF_PERICENTER":259.714,"MEAN_ANOMALY":96.5875,"EPHEMERIS_TYPE":0,"CLASSIFICATION_TYPE":"U","NORAD_CAT_ID":39543,"ELEMENT_SET_NO":999,"REV_AT_EPOCH":50446,"BSTAR":0.00078858397,"MEAN_MOTION_DOT":9.98e-6,"MEAN_MOTION_DDOT":0}]
