FENGYUN 1C DEB          
1 38797U 99025EUM 26070.45989790  .00000732  00000+0  82537-3 0  9994
2 38797  99.4773 325.8531 0246704 354.9674   4.8994 13.61731985604900
FENGYUN 1C DEB          
1 38799U 99025EUP 26069.17501565  .00005555  00000+0  12259-2 0  9994
2 38799  98.3929 149.3111 0162736  83.8180 278.1525 14.49799862653059
FENGYUN 1C DEB          
1 38801U 99025EUR 26066.40393816  .00003651  00000+0  83362-3 0  9998
2 38801  98.3608 118.3108 0346532 102.8707 325.6511 14.25341338655661
FENGYUN 1C DEB          
1 38803U 99025EUT 26069.48987443  .00004431  00000+0  18857-2 0  9999
2 38803  99.1377  81.7775 0064367 144.4160 216.1335 14.24612281614611
FENGYUN 1C DEB          
1 38809U 99025EUZ 26071.27431837  .00001448  00000+0  56395-3 0  9991
2 38809  98.5884  83.6571 0223822  69.6616 292.8455 14.18413087704750
FENGYUN 1C DEB          
1 38813U 99025EVD 26074.29738743  .00000997  00000+0  48820-3 0  9999
2 38813  99.3488  81.6596 0005260 207.5073 152.5824 14.20403575495644
FENGYUN 1C DEB          
1 38818U 99025EVJ 26069.40224747  .00001565  00000+0  49098-3 0  9995
2 38818  98.2847 127.8978 0087166 194.6778 231.9760 14.39761519685092
FENGYUN 1C DEB          
1 38819U 99025EVK 26074.23712935  .00000986  00000+0  47297-3 0  9999
2 38819  98.6262  69.6045 0078650 288.5193  84.7645 14.19591486647904
FENGYUN 1C DEB          
1 38824U 99025EVQ 26073.82469997  .00005889  00000+0  29236-2 0  9995
2 38824  99.2935 216.1893 0092340 302.2586  56.9663 14.15330883704392
FENGYUN 1C DEB          
1 38827U 99025EVT 26058.77563504  .00003102  00000+0  87725-3 0  9998
2 38827  98.3859  84.3170 0217334  83.7685 278.8208 14.33348676621630
FENGYUN 1C DEB          
1 38829U 99025EVV 26073.50404727  .00000953  00000+0  56531-3 0  9991
2 38829  98.7449  91.8306 0042001 129.3790 231.1112 14.09432901654254
FENGYUN 1C DEB          
1 38832U 99025EVY 26073.57686190  .00002318  00000+0  14222-2 0  9995
2 38832  99.2579 124.8161 0087109 148.3264 212.3185 14.04887526650472
FENGYUN 1C DEB          
1 39537U 99025EWE 26072.35019186  .00002785  00000+0  22255-2 0  9991
2 39537  99.1557 220.8835 0176362  99.7242 262.3882 13.84718385605102
FENGYUN 1C DEB          
1 39540U 99025EWH 26065.60758395  .00001895  00000+0  24056-2 0  9999
2 39540 106.1831 347.6154 0398512 157.9132 327.7913 13.37245619702191
FENGYUN 1C DEB          
1 39541U 99025EWJ 26070.38552988  .00001288  00000+0  60229-3 0  9990
2 39541  98.6672 115.8247 0071900 175.6383 184.5436 14.20652805602619
FENGYUN 1C DEB          
1 39543U 99025EWL 26073.81449192  .00000998  00000+0  78858-3 0  9999
2 39543  99.0314 103.2960 0336834 259.7140  96.5875 13.70428335504463
